start=new Date('2021-10-29T00:00:00.000Z').valueOf();
sats=[{"NORAD_CAT_ID":"48643","OBJECT_NAME":"STARLINK-2704","COUNTRY_CODE":"US","ELEMENT_SET_NO":"999","RCS_SIZE":"LARGE","PERIAPSIS":"546.155","CENTER_NAME":"EARTH","APOAPSIS":"548.250","INCLINATION":"53.0557","MEAN_MOTION":"15.06403546","TIME_SYSTEM":"UTC","BSTAR":"-0.00000494970000","SEMIMAJOR_AXIS":"6925.338","EPOCH":"2021-10-28T15:46:20.152416","PERIOD":"95.592","MEAN_ANOMALY":"266.1470","LAUNCH_DATE":"2021-05-26","ARG_OF_PERICENTER":"93.9692","SITE":"AFETR","MEAN_ELEMENT_THEORY":"SGP4","GP_ID":"188368389","TLE_LINE1":"1 48643U 21044F   21301.65717769 -.00000355  00000-0 -49497-5 0  9994","FILE":"3189402","OBJECT_TYPE":"PAYLOAD","REF_FRAME":"TEME","CLASSIFICATION_TYPE":"U","OBJECT_ID":"2021-044F","TLE_LINE2":"2 48643  53.0557  73.0066 0001513  93.9692 266.1470 15.06403546 23603","MEAN_MOTION_DDOT":"0.0000000000000","RA_OF_ASC_NODE":"73.0066","REV_AT_EPOCH":"2360","ECCENTRICITY":"0.00015130","DECAY_DATE":null,"EPHEMERIS_TYPE":"0","MEAN_MOTION_DOT":"-0.00000355"},{"EPHEMERIS_TYPE":"0","MEAN_MOTION_DOT":"0.00000781","REV_AT_EPOCH":"2360","RA_OF_ASC_NODE":"73.0242","TLE_LINE2":"2 48644  53.0568  73.0242 0001246  91.1278 268.9853 15.06395708 23600","MEAN_MOTION_DDOT":"0.0000000000000","OBJECT_ID":"2021-044G","DECAY_DATE":null,"ECCENTRICITY":"0.00012460","TLE_LINE1":"1 48644U 21044G   21301.65350033  .00000781  00000-0  71322-4 0  9994","GP_ID":"188368976","CLASSIFICATION_TYPE":"U","REF_FRAME":"TEME","OBJECT_TYPE":"PAYLOAD","FILE":"3189402","ARG_OF_PERICENTER":"91.1278","MEAN_ELEMENT_THEORY":"SGP4","SITE":"AFETR","MEAN_ANOMALY":"268.9853","LAUNCH_DATE":"2021-05-26","BSTAR":"0.00007132200000","PERIOD":"95.592","EPOCH":"2021-10-28T15:41:02.428512","SEMIMAJOR_AXIS":"6925.362","INCLINATION":"53.0568","APOAPSIS":"548.090","CENTER_NAME":"EARTH","PERIAPSIS":"546.364","RCS_SIZE":"LARGE","TIME_SYSTEM":"UTC","MEAN_MOTION":"15.06395708","OBJECT_NAME":"STARLINK-2695","NORAD_CAT_ID":"48644","ELEMENT_SET_NO":"999","COUNTRY_CODE":"US"},{"BSTAR":"-0.00000444570000","SEMIMAJOR_AXIS":"6925.317","EPOCH":"2021-10-28T15:35:43.052640","PERIOD":"95.591","MEAN_ANOMALY":"275.5266","LAUNCH_DATE":"2021-05-26","NORAD_CAT_ID":"48645","OBJECT_NAME":"STARLINK-2733","COUNTRY_CODE":"US","ELEMENT_SET_NO":"999","RCS_SIZE":"LARGE","PERIAPSIS":"546.110","CENTER_NAME":"EARTH","APOAPSIS":"548.254","INCLINATION":"53.0571","MEAN_MOTION":"15.06410208","TIME_SYSTEM":"UTC","OBJECT_ID":"2021-044H","RA_OF_ASC_NODE":"73.0383","TLE_LINE2":"2 48645  53.0571  73.0383 0001548  84.5900 275.5266 15.06410208 23609","MEAN_MOTION_DDOT":"0.0000000000000","REV_AT_EPOCH":"2360","ECCENTRICITY":"0.00015480","DECAY_DATE":null,"EPHEMERIS_TYPE":"0","MEAN_MOTION_DOT":"-0.00000348","ARG_OF_PERICENTER":"84.5900","SITE":"AFETR","MEAN_ELEMENT_THEORY":"SGP4","TLE_LINE1":"1 48645U 21044H   21301.64980385 -.00000348  00000-0 -44457-5 0  9994","GP_ID":"188368506","FILE":"3189402","OBJECT_TYPE":"PAYLOAD","REF_FRAME":"TEME","CLASSIFICATION_TYPE":"U"},{"BSTAR":"-0.00009194900000","SEMIMAJOR_AXIS":"6925.378","EPOCH":"2021-10-28T15:30:26.273088","PERIOD":"95.593","MEAN_ANOMALY":"286.8858","LAUNCH_DATE":"2021-05-26","OBJECT_NAME":"STARLINK-2732","NORAD_CAT_ID":"48646","ELEMENT_SET_NO":"999","COUNTRY_CODE":"US","CENTER_NAME":"EARTH","PERIAPSIS":"546.276","RCS_SIZE":"LARGE","INCLINATION":"53.0550","APOAPSIS":"548.211","MEAN_MOTION":"15.06390299","TIME_SYSTEM":"UTC","RA_OF_ASC_NODE":"73.0538","TLE_LINE2":"2 48646  53.0550  73.0538 0001397  73.2285 286.8858 15.06390299 23601","MEAN_MOTION_DDOT":"0.0000000000000","OBJECT_ID":"2021-044J","REV_AT_EPOCH":"2360","DECAY_DATE":null,"ECCENTRICITY":"0.00013970","EPHEMERIS_TYPE":"0","MEAN_MOTION_DOT":"-0.00001650","ARG_OF_PERICENTER":"73.2285","SITE":"AFETR","MEAN_ELEMENT_THEORY":"SGP4","GP_ID":"188369202","TLE_LINE1":"1 48646U 21044J   21301.64613742 -.00001650  00000-0 -91949-4 0  9999","FILE":"3189402","CLASSIFICATION_TYPE":"U","REF_FRAME":"TEME","OBJECT_TYPE":"PAYLOAD"},{"NORAD_CAT_ID":"48647","OBJECT_NAME":"STARLINK-2691","COUNTRY_CODE":"US","ELEMENT_SET_NO":"999","RCS_SIZE":"LARGE","PERIAPSIS":"546.246","CENTER_NAME":"EARTH","APOAPSIS":"548.183","INCLINATION":"53.0558","MEAN_MOTION":"15.06399674","TIME_SYSTEM":"UTC","BSTAR":"0.00002630500000","SEMIMAJOR_AXIS":"6925.350","EPOCH":"2021-10-28T15:25:07.143456","PERIOD":"95.592","MEAN_ANOMALY":"272.2069","LAUNCH_DATE":"2021-05-26","ARG_OF_PERICENTER":"87.9080","SITE":"AFETR","MEAN_ELEMENT_THEORY":"SGP4","TLE_LINE1":"1 48647U 21044K   21301.64244379  .00000110  00000-0  26305-4 0  9998","GP_ID":"188368744","FILE":"3189402","OBJECT_TYPE":"PAYLOAD","REF_FRAME":"TEME","CLASSIFICATION_TYPE":"U","OBJECT_ID":"2021-044K","TLE_LINE2":"2 48647  53.0558  73.0790 0001398  87.9080 272.2069 15.06399674 23605","RA_OF_ASC_NODE":"73.0790","MEAN_MOTION_DDOT":"0.0000000000000","REV_AT_EPOCH":"2360","ECCENTRICITY":"0.00013980","DECAY_DATE":null,"EPHEMERIS_TYPE":"0","MEAN_MOTION_DOT":"0.00000110"},{"EPOCH":"2021-10-28T15:23:45.566304","PERIOD":"95.592","SEMIMAJOR_AXIS":"6925.349","BSTAR":"0.00003945000000","LAUNCH_DATE":"2021-05-26","MEAN_ANOMALY":"276.9087","ELEMENT_SET_NO":"999","COUNTRY_CODE":"US","OBJECT_NAME":"STARLINK-2521","NORAD_CAT_ID":"48648","TIME_SYSTEM":"UTC","MEAN_MOTION":"15.06399996","INCLINATION":"53.0556","APOAPSIS":"548.220","CENTER_NAME":"EARTH","PERIAPSIS":"546.207","RCS_SIZE":"LARGE","DECAY_DATE":null,"ECCENTRICITY":"0.00014530","REV_AT_EPOCH":"2360","TLE_LINE2":"2 48648  53.0556  73.0796 0001453  83.2067 276.9087 15.06399996 23604","MEAN_MOTION_DDOT":"0.0000000000000","RA_OF_ASC_NODE":"73.0796","OBJECT_ID":"2021-044L","MEAN_MOTION_DOT":"0.00000306","EPHEMERIS_TYPE":"0","MEAN_ELEMENT_THEORY":"SGP4","SITE":"AFETR","ARG_OF_PERICENTER":"83.2067","CLASSIFICATION_TYPE":"U","OBJECT_TYPE":"PAYLOAD","REF_FRAME":"TEME","FILE":"3189402","TLE_LINE1":"1 48648U 21044L   21301.64149961  .00000306  00000-0  39450-4 0  9992","GP_ID":"188368623"},{"RCS_SIZE":"LARGE","PERIAPSIS":"546.247","CENTER_NAME":"EARTH","APOAPSIS":"548.154","INCLINATION":"53.0529","MEAN_MOTION":"15.06404158","TIME_SYSTEM":"UTC","NORAD_CAT_ID":"48649","OBJECT_NAME":"STARLINK-2673","COUNTRY_CODE":"US","ELEMENT_SET_NO":"999","MEAN_ANOMALY":"273.7214","LAUNCH_DATE":"2021-05-26","BSTAR":"0.00002850400000","SEMIMAJOR_AXIS":"6925.336","PERIOD":"95.592","EPOCH":"2021-10-28T15:19:48.061344","GP_ID":"188368860","TLE_LINE1":"1 48649U 21044M   21301.63875071  .00000143  00000-0  28504-4 0  9997","FILE":"3189402","OBJECT_TYPE":"PAYLOAD","REF_FRAME":"TEME","CLASSIFICATION_TYPE":"U","ARG_OF_PERICENTER":"86.3932","SITE":"AFETR","MEAN_ELEMENT_THEORY":"SGP4","EPHEMERIS_TYPE":"0","MEAN_MOTION_DOT":"0.00000143","OBJECT_ID":"2021-044M","MEAN_MOTION_DDOT":"0.0000000000000","TLE_LINE2":"2 48649  53.0529  73.1029 0001377  86.3932 273.7214 15.06404158 23597","RA_OF_ASC_NODE":"73.1029","REV_AT_EPOCH":"2359","ECCENTRICITY":"0.00013770","DECAY_DATE":null},{"FILE":"3189402","REF_FRAME":"TEME","OBJECT_TYPE":"PAYLOAD","CLASSIFICATION_TYPE":"U","TLE_LINE1":"1 48650U 21044N   21301.63506331  .00002055  00000-0  15678-3 0  9990","GP_ID":"188369090","SITE":"AFETR","MEAN_ELEMENT_THEORY":"SGP4","ARG_OF_PERICENTER":"87.0914","MEAN_MOTION_DOT":"0.00002055","EPHEMERIS_TYPE":"0","ECCENTRICITY":"0.00017080","DECAY_DATE":null,"OBJECT_ID":"2021-044N","MEAN_MOTION_DDOT":"0.0000000000000","TLE_LINE2":"2 48650  53.0557  73.1097 0001708  87.0914 273.0271 15.06404420 23599","RA_OF_ASC_NODE":"73.1097","REV_AT_EPOCH":"2359","MEAN_MOTION":"15.06404420","TIME_SYSTEM":"UTC","RCS_SIZE":"LARGE","CENTER_NAME":"EARTH","PERIAPSIS":"546.017","APOAPSIS":"548.383","INCLINATION":"53.0557","COUNTRY_CODE":"US","ELEMENT_SET_NO":"999","NORAD_CAT_ID":"48650","OBJECT_NAME":"STARLINK-2672","LAUNCH_DATE":"2021-05-26","MEAN_ANOMALY":"273.0271","SEMIMAJOR_AXIS":"6925.335","PERIOD":"95.592","EPOCH":"2021-10-28T15:14:29.469984","BSTAR":"0.00015678000000"},{"SEMIMAJOR_AXIS":"6925.341","EPOCH":"2021-10-28T15:09:11.081664","PERIOD":"95.592","BSTAR":"0.00007254900000","LAUNCH_DATE":"2021-05-26","MEAN_ANOMALY":"265.1315","COUNTRY_CODE":"US","ELEMENT_SET_NO":"999","NORAD_CAT_ID":"48651","OBJECT_NAME":"STARLINK-2731","MEAN_MOTION":"15.06402334","TIME_SYSTEM":"UTC","RCS_SIZE":"LARGE","PERIAPSIS":"546.131","CENTER_NAME":"EARTH","APOAPSIS":"548.282","INCLINATION":"53.0544","ECCENTRICITY":"0.00015530","DECAY_DATE":null,"OBJECT_ID":"2021-044P","TLE_LINE2":"2 48651  53.0544  73.1212 0001553  94.9851 265.1315 15.06402334 23593","MEAN_MOTION_DDOT":"0.0000000000000","RA_OF_ASC_NODE":"73.1212","REV_AT_EPOCH":"2359","MEAN_MOTION_DOT":"0.00000799","EPHEMERIS_TYPE":"0","SITE":"AFETR","MEAN_ELEMENT_THEORY":"SGP4","ARG_OF_PERICENTER":"94.9851","FILE":"3189402","REF_FRAME":"TEME","OBJECT_TYPE":"PAYLOAD","CLASSIFICATION_TYPE":"U","GP_ID":"188368390","TLE_LINE1":"1 48651U 21044P   21301.63137826  .00000799  00000-0  72549-4 0  9994"},{"ARG_OF_PERICENTER":"78.5815","SITE":"AFETR","MEAN_ELEMENT_THEORY":"SGP4","TLE_LINE1":"1 48652U 21044Q   21301.69403903  .00000132  00000-0  27714-4 0  9998","GP_ID":"188368977","FILE":"3189402","OBJECT_TYPE":"PAYLOAD","REF_FRAME":"TEME","CLASSIFICATION_TYPE":"U","OBJECT_ID":"2021-044Q","TLE_LINE2":"2 48652  53.0560  72.8397 0001134  78.5815 281.5302 15.06407881 23607","RA_OF_ASC_NODE":"72.8397","MEAN_MOTION_DDOT":"0.0000000000000","REV_AT_EPOCH":"2360","ECCENTRICITY":"0.00011340","DECAY_DATE":null,"EPHEMERIS_TYPE":"0","MEAN_MOTION_DOT":"0.00000132","NORAD_CAT_ID":"48652","OBJECT_NAME":"STARLINK-2727","COUNTRY_CODE":"US","ELEMENT_SET_NO":"999","RCS_SIZE":"LARGE","PERIAPSIS":"546.404","CENTER_NAME":"EARTH","APOAPSIS":"547.975","INCLINATION":"53.0560","MEAN_MOTION":"15.06407881","TIME_SYSTEM":"UTC","BSTAR":"0.00002771400000","SEMIMAJOR_AXIS":"6925.324","EPOCH":"2021-10-28T16:39:24.972192","PERIOD":"95.592","MEAN_ANOMALY":"281.5302","LAUNCH_DATE":"2021-05-26"}];
